{
  "type": "FeatureCollection",
  "features": [
    {
      "type": "Feature",
      "properties": {
        "norad_id": 66544,
        "name": "STARLINK-35728",
        "group": "last-30-days",
        "lat": -5.302168884470368,
        "lon": 6.946059161491173,
        "alt_km": 420.468678362281,
        "timestamp": "2025-12-19T18:58:40.325469+00:00",
        "meta_object_name": "STARLINK-35728",
        "meta_object_id": "2025-265AE",
        "meta_epoch": "2025-12-19T05:05:00.258720",
        "meta_mean_motion": 15.48938165,
        "meta_eccentricity": 7.02e-05,
        "meta_inclination": 42.9972,
        "meta_ra_of_asc_node": 16.0415,
        "meta_arg_of_pericenter": 172.7753,
        "meta_mean_anomaly": 187.3116,
        "meta_ephemeris_type": 0,
        "meta_classification_type": "U",
        "meta_norad_cat_id": 66544,
        "meta_element_set_no": 999,
        "meta_rev_at_epoch": 476,
        "meta_bstar": 0.0014018972,
        "meta_mean_motion_dot": 0.00078047,
        "meta_mean_motion_ddot": 0,
        "tle_line1": "1 66544U 25265AE  25353.21180855  .00078047  00000+0  14019-2 0  9995",
        "tle_line2": "2 66544  42.9972  16.0415 0000702 172.7753 187.3116 15.48938165  4762"
      },
      "geometry": {
        "type": "Point",
        "coordinates": [
          6.946059161491173,
          -5.302168884470368
        ]
      }
    },
    {
      "type": "Feature",
      "properties": {
        "norad_id": 66545,
        "name": "SHIJIAN-30A (SJ-30A)",
        "group": "last-30-days",
        "lat": -43.002315774883854,
        "lon": 167.08419412302166,
        "alt_km": 530.5039316307184,
        "timestamp": "2025-12-19T18:58:40.325480+00:00",
        "meta_object_name": "SHIJIAN-30A (SJ-30A)",
        "meta_object_id": "2025-266A",
        "meta_epoch": "2025-12-19T06:50:40.226784",
        "meta_mean_motion": 15.15591551,
        "meta_eccentricity": 0.00130419,
        "meta_inclination": 51.7999,
        "meta_ra_of_asc_node": 302.198,
        "meta_arg_of_pericenter": 19.4231,
        "meta_mean_anomaly": 340.724,
        "meta_ephemeris_type": 0,
        "meta_classification_type": "U",
        "meta_norad_cat_id": 66545,
        "meta_element_set_no": 999,
        "meta_rev_at_epoch": 457,
        "meta_bstar": 0.00046935761,
        "meta_mean_motion_dot": 8.74e-05,
        "meta_mean_motion_ddot": 0,
        "tle_line1": "1 66545U 25266A   25353.28518781  .00008740  00000+0  46936-3 0  9994",
        "tle_line2": "2 66545  51.7999 302.1980 0013041  19.4231 340.7240 15.15591551  4574"
      },
      "geometry": {
        "type": "Point",
        "coordinates": [
          167.08419412302166,
          -43.002315774883854
        ]
      }
    },
    {
      "type": "Feature",
      "properties": {
        "norad_id": 66546,
        "name": "SHIJIAN-30B (SJ-30B)",
        "group": "last-30-days",
        "lat": -39.15919976144905,
        "lon": 159.7303298007317,
        "alt_km": 529.878739640898,
        "timestamp": "2025-12-19T18:58:40.325490+00:00",
        "meta_object_name": "SHIJIAN-30B (SJ-30B)",
        "meta_object_id": "2025-266B",
        "meta_epoch": "2025-12-19T06:52:27.255648",
        "meta_mean_motion": 15.15576743,
        "meta_eccentricity": 0.00107523,
        "meta_inclination": 51.7983,
        "meta_ra_of_asc_node": 302.2014,
        "meta_arg_of_pericenter": 22.6775,
        "meta_mean_anomaly": 337.4674,
        "meta_ephemeris_type": 0,
        "meta_classification_type": "U",
        "meta_norad_cat_id": 66546,
        "meta_element_set_no": 999,
        "meta_rev_at_epoch": 457,
        "meta_bstar": 0.00052661507,
        "meta_mean_motion_dot": 9.836e-05,
        "meta_mean_motion_ddot": 0,
        "tle_line1": "1 66546U 25266B   25353.28642657  .00009836  00000+0  52662-3 0  9995",
        "tle_line2": "2 66546  51.7983 302.2014 0010752  22.6775 337.4674 15.15576743  4572"
      },
      "geometry": {
        "type": "Point",
        "coordinates": [
          159.7303298007317,
          -39.15919976144905
        ]
      }
    },
    {
      "type": "Feature",
      "properties": {
        "norad_id": 66547,
        "name": "SHIJIAN-30C (SJ-30C)",
        "group": "last-30-days",
        "lat": -36.90560903124807,
        "lon": 156.10283584552792,
        "alt_km": 530.1418842287885,
        "timestamp": "2025-12-19T18:58:40.325501+00:00",
        "meta_object_name": "SHIJIAN-30C (SJ-30C)",
        "meta_object_id": "2025-266C",
        "meta_epoch": "2025-12-19T06:53:22.747776",
        "meta_mean_motion": 15.15514336,
        "meta_eccentricity": 0.00116085,
        "meta_inclination": 51.7993,
        "meta_ra_of_asc_node": 302.2079,
        "meta_arg_of_pericenter": 14.4059,
        "meta_mean_anomaly": 345.7246,
        "meta_ephemeris_type": 0,
        "meta_classification_type": "U",
        "meta_norad_cat_id": 66547,
        "meta_element_set_no": 999,
        "meta_rev_at_epoch": 457,
        "meta_bstar": 0.00046012992,
        "meta_mean_motion_dot": 8.539e-05,
        "meta_mean_motion_ddot": 0,
        "tle_line1": "1 66547U 25266C   25353.28706884  .00008539  00000+0  46013-3 0  9991",
        "tle_line2": "2 66547  51.7993 302.2079 0011608  14.4059 345.7246 15.15514336  4577"
      },
      "geometry": {
        "type": "Point",
        "coordinates": [
          156.10283584552792,
          -36.90560903124807
        ]
      }
    },
    {
      "type": "Feature",
      "properties": {
        "norad_id": 66548,
        "name": "CZ-2C R/B",
        "group": "last-30-days",
        "lat": 22.093320341692426,
        "lon": -43.852992410198055,
        "alt_km": 528.4838237907652,
        "timestamp": "2025-12-19T18:58:40.325511+00:00",
        "meta_object_name": "CZ-2C R/B",
        "meta_object_id": "2025-266D",
        "meta_epoch": "2025-12-19T06:18:48.203424",
        "meta_mean_motion": 15.30314479,
        "meta_eccentricity": 0.00835266,
        "meta_inclination": 52.0561,
        "meta_ra_of_asc_node": 300.1975,
        "meta_arg_of_pericenter": 195.5827,
        "meta_mean_anomaly": 164.2586,
        "meta_ephemeris_type": 0,
        "meta_classification_type": "U",
        "meta_norad_cat_id": 66548,
        "meta_element_set_no": 999,
        "meta_rev_at_epoch": 461,
        "meta_bstar": 0.00028607557,
        "meta_mean_motion_dot": 9.074e-05,
        "meta_mean_motion_ddot": 0,
        "tle_line1": "1 66548U 25266D   25353.26305791  .00009074  00000+0  28608-3 0  9997",
        "tle_line2": "2 66548  52.0561 300.1975 0083526 195.5827 164.2586 15.30314479  4616"
      },
      "geometry": {
        "type": "Point",
        "coordinates": [
          -43.852992410198055,
          22.093320341692426
        ]
      }
    },
    {
      "type": "Feature",
      "properties": {
        "norad_id": 66549,
        "name": "SHIJIAN-28 (SJ-28)",
        "group": "last-30-days",
        "lat": -2.871245832805413,
        "lon": 130.01109736579022,
        "alt_km": 35786.50143840095,
        "timestamp": "2025-12-19T18:58:40.325526+00:00",
        "meta_object_name": "SHIJIAN-28 (SJ-28)",
        "meta_object_id": "2025-277A",
        "meta_epoch": "2025-12-19T06:58:19.081632",
        "meta_mean_motion": 1.0026879,
        "meta_eccentricity": 0.00010406,
        "meta_inclination": 5.0025,
        "meta_ra_of_asc_node": 274.8545,
        "meta_arg_of_pericenter": 136.5109,
        "meta_mean_anomaly": 258.1828,
        "meta_ephemeris_type": 0,
        "meta_classification_type": "U",
        "meta_norad_cat_id": 66549,
        "meta_element_set_no": 999,
        "meta_rev_at_epoch": 35,
        "meta_bstar": 0,
        "meta_mean_motion_dot": -3.3e-06,
        "meta_mean_motion_ddot": 0,
        "tle_line1": "1 66549U 25277A   25353.29049863 -.00000330  00000+0  00000+0 0  9997",
        "tle_line2": "2 66549   5.0025 274.8545 0001040 136.5109 258.1828  1.00268790   354"
      },
      "geometry": {
        "type": "Point",
        "coordinates": [
          130.01109736579022,
          -2.871245832805413
        ]
      }
    },
    {
      "type": "Feature",
      "properties": {
        "norad_id": 66550,
        "name": "CZ-7A R/B",
        "group": "last-30-days",
        "lat": 5.376179504676116,
        "lon": -72.3513374215879,
        "alt_km": 27614.16825998852,
        "timestamp": "2025-12-19T18:58:40.325540+00:00",
        "meta_object_name": "CZ-7A R/B",
        "meta_object_id": "2025-277B",
        "meta_epoch": "2025-12-12T23:59:46.063680",
        "meta_mean_motion": 2.69999213,
        "meta_eccentricity": 0.70164962,
        "meta_inclination": 14.3833,
        "meta_ra_of_asc_node": 269.7494,
        "meta_arg_of_pericenter": 189.2871,
        "meta_mean_anomaly": 143.2042,
        "meta_ephemeris_type": 0,
        "meta_classification_type": "U",
        "meta_norad_cat_id": 66550,
        "meta_element_set_no": 999,
        "meta_rev_at_epoch": 35,
        "meta_bstar": 0.0022608485,
        "meta_mean_motion_dot": 0.01807848,
        "meta_mean_motion_ddot": -2.55676e-07,
        "tle_line1": "1 66550U 25277B   25346.99983870  .01807848 -25568-6  22608-2 0  9997",
        "tle_line2": "2 66550  14.3833 269.7494 7016496 189.2871 143.2042  2.69999213   350"
      },
      "geometry": {
        "type": "Point",
        "coordinates": [
          -72.3513374215879,
          5.376179504676116
        ]
      }
    }
  ]
}